{
  "type": "FeatureCollection",
  "features": [
    {
      "type": "Feature",
      "properties": {
        "norad_id": 66913,
        "name": "2025-284A",
        "group": "last-30-days",
        "lat": -50.73644940743115,
        "lon": -57.08526008149648,
        "alt_km": 537.1460302569085,
        "timestamp": "2025-12-27T17:24:56.107205+00:00",
        "meta_object_name": "2025-284A",
        "meta_object_id": "2025-284A",
        "meta_epoch": "2025-12-23T02:34:46.438752",
        "meta_mean_motion": 15.08893564,
        "meta_eccentricity": 0.0013475,
        "meta_inclination": 80.4035,
        "meta_ra_of_asc_node": 116.7336,
        "meta_arg_of_pericenter": 259.6514,
        "meta_mean_anomaly": 100.3189,
        "meta_ephemeris_type": 0,
        "meta_classification_type": "U",
        "meta_norad_cat_id": 66913,
        "meta_element_set_no": 999,
        "meta_rev_at_epoch": 269,
        "meta_bstar": 0.00055263602,
        "meta_mean_motion_dot": 8.748e-05,
        "meta_mean_motion_ddot": 0,
        "tle_line1": "1 66913U 25284A   25357.10748193  .00008748  00000+0  55264-3 0  9992",
        "tle_line2": "2 66913  80.4035 116.7336 0013475 259.6514 100.3189 15.08893564  2694"
      },
      "geometry": {
        "type": "Point",
        "coordinates": [
          -57.08526008149648,
          -50.73644940743115
        ]
      }
    },
    {
      "type": "Feature",
      "properties": {
        "norad_id": 66914,
        "name": "2025-284B",
        "group": "last-30-days",
        "lat": -63.263525702910805,
        "lon": -49.6080057103215,
        "alt_km": 511.6726676076132,
        "timestamp": "2025-12-27T17:24:56.107215+00:00",
        "meta_object_name": "2025-284B",
        "meta_object_id": "2025-284B",
        "meta_epoch": "2025-12-16T06:51:11.417184",
        "meta_mean_motion": 15.18985981,
        "meta_eccentricity": 0.00081793,
        "meta_inclination": 80.4045,
        "meta_ra_of_asc_node": 125.2713,
        "meta_arg_of_pericenter": 234.9626,
        "meta_mean_anomaly": 125.0834,
        "meta_ephemeris_type": 0,
        "meta_classification_type": "U",
        "meta_norad_cat_id": 66914,
        "meta_element_set_no": 999,
        "meta_rev_at_epoch": 166,
        "meta_bstar": 0.00038444995,
        "meta_mean_motion_dot": 8.068e-05,
        "meta_mean_motion_ddot": 0,
        "tle_line1": "1 66914U 25284B   25350.28554881  .00008068  00000+0  38445-3 0  9991",
        "tle_line2": "2 66914  80.4045 125.2713 0008179 234.9626 125.0834 15.18985981  1668"
      },
      "geometry": {
        "type": "Point",
        "coordinates": [
          -49.6080057103215,
          -63.263525702910805
        ]
      }
    },
    {
      "type": "Feature",
      "properties": {
        "norad_id": 66915,
        "name": "HULIANWANG DIGUI-105",
        "group": "last-30-days",
        "lat": -0.5582042774832713,
        "lon": 55.78821219251858,
        "alt_km": 884.1683652661668,
        "timestamp": "2025-12-27T17:24:56.107236+00:00",
        "meta_object_name": "HULIANWANG DIGUI-105",
        "meta_object_id": "2025-285A",
        "meta_epoch": "2025-12-27T12:17:09.797280",
        "meta_mean_motion": 14.01758696,
        "meta_eccentricity": 0.0006275,
        "meta_inclination": 50.0023,
        "meta_ra_of_asc_node": 57.1247,
        "meta_arg_of_pericenter": 333.8573,
        "meta_mean_anomaly": 26.2013,
        "meta_ephemeris_type": 0,
        "meta_classification_type": "U",
        "meta_norad_cat_id": 66915,
        "meta_element_set_no": 999,
        "meta_rev_at_epoch": 298,
        "meta_bstar": 0.00013672,
        "meta_mean_motion_dot": 5.8e-07,
        "meta_mean_motion_ddot": 0,
        "tle_line1": "1 66915U 25285A   25361.51191895  .00000058  00000+0  13672-3 0  9999",
        "tle_line2": "2 66915  50.0023  57.1247 0006275 333.8573  26.2013 14.01758696  2987"
      },
      "geometry": {
        "type": "Point",
        "coordinates": [
          55.78821219251858,
          -0.5582042774832713
        ]
      }
    },
    {
      "type": "Feature",
      "properties": {
        "norad_id": 66916,
        "name": "HULIANWANG DIGUI-106",
        "group": "last-30-days",
        "lat": 10.67738409039371,
        "lon": 65.3462092129789,
        "alt_km": 883.9022564679335,
        "timestamp": "2025-12-27T17:24:56.107248+00:00",
        "meta_object_name": "HULIANWANG DIGUI-106",
        "meta_object_id": "2025-285B",
        "meta_epoch": "2025-12-27T10:30:20.131200",
        "meta_mean_motion": 14.01851189,
        "meta_eccentricity": 0.0004948,
        "meta_inclination": 50.0052,
        "meta_ra_of_asc_node": 57.4085,
        "meta_arg_of_pericenter": 327.7035,
        "meta_mean_anomaly": 32.3565,
        "meta_ephemeris_type": 0,
        "meta_classification_type": "U",
        "meta_norad_cat_id": 66916,
        "meta_element_set_no": 999,
        "meta_rev_at_epoch": 297,
        "meta_bstar": 0.00013439,
        "meta_mean_motion_dot": 5.5e-07,
        "meta_mean_motion_ddot": 0,
        "tle_line1": "1 66916U 25285B   25361.43773300  .00000055  00000+0  13439-3 0  9996",
        "tle_line2": "2 66916  50.0052  57.4085 0004948 327.7035  32.3565 14.01851189  2973"
      },
      "geometry": {
        "type": "Point",
        "coordinates": [
          65.3462092129789,
          10.67738409039371
        ]
      }
    },
    {
      "type": "Feature",
      "properties": {
        "norad_id": 66917,
        "name": "HULIANWANG DIGUI-107",
        "group": "last-30-days",
        "lat": 17.807336765003726,
        "lon": 71.85186714628001,
        "alt_km": 882.248005634201,
        "timestamp": "2025-12-27T17:24:56.107258+00:00",
        "meta_object_name": "HULIANWANG DIGUI-107",
        "meta_object_id": "2025-285C",
        "meta_epoch": "2025-12-27T12:10:18.056352",
        "meta_mean_motion": 14.0197238,
        "meta_eccentricity": 0.0005409,
        "meta_inclination": 49.9996,
        "meta_ra_of_asc_node": 57.0932,
        "meta_arg_of_pericenter": 335.837,
        "meta_mean_anomaly": 24.2279,
        "meta_ephemeris_type": 0,
        "meta_classification_type": "U",
        "meta_norad_cat_id": 66917,
        "meta_element_set_no": 999,
        "meta_rev_at_epoch": 298,
        "meta_bstar": 0.00019435,
        "meta_mean_motion_dot": 1.47e-06,
        "meta_mean_motion_ddot": 0,
        "tle_line1": "1 66917U 25285C   25361.50715343  .00000147  00000+0  19435-3 0  9992",
        "tle_line2": "2 66917  49.9996  57.0932 0005409 335.8370  24.2279 14.01972380  2980"
      },
      "geometry": {
        "type": "Point",
        "coordinates": [
          71.85186714628001,
          17.807336765003726
        ]
      }
    },
    {
      "type": "Feature",
      "properties": {
        "norad_id": 66918,
        "name": "HULIANWANG DIGUI-108",
        "group": "last-30-days",
        "lat": 20.266388128367023,
        "lon": 74.27051107617211,
        "alt_km": 882.1921234861256,
        "timestamp": "2025-12-27T17:24:56.107268+00:00",
        "meta_object_name": "HULIANWANG DIGUI-108",
        "meta_object_id": "2025-285D",
        "meta_epoch": "2025-12-27T12:09:22.165920",
        "meta_mean_motion": 14.02080542,
        "meta_eccentricity": 0.0004556,
        "meta_inclination": 50.005,
        "meta_ra_of_asc_node": 57.1032,
        "meta_arg_of_pericenter": 332.9216,
        "meta_mean_anomaly": 27.145,
        "meta_ephemeris_type": 0,
        "meta_classification_type": "U",
        "meta_norad_cat_id": 66918,
        "meta_element_set_no": 999,
        "meta_rev_at_epoch": 298,
        "meta_bstar": 5.4473e-05,
        "meta_mean_motion_dot": -6.7e-07,
        "meta_mean_motion_ddot": 0,
        "tle_line1": "1 66918U 25285D   25361.50650655 -.00000067  00000+0  54473-4 0  9991",
        "tle_line2": "2 66918  50.0050  57.1032 0004556 332.9216  27.1450 14.02080542  2980"
      },
      "geometry": {
        "type": "Point",
        "coordinates": [
          74.27051107617211,
          20.266388128367023
        ]
      }
    },
    {
      "type": "Feature",
      "properties": {
        "norad_id": 66919,
        "name": "HULIANWANG DIGUI-109",
        "group": "last-30-days",
        "lat": 27.73367720487085,
        "lon": 82.38838608714332,
        "alt_km": 879.7008715990869,
        "timestamp": "2025-12-27T17:24:56.107278+00:00",
        "meta_object_name": "HULIANWANG DIGUI-109",
        "meta_object_id": "2025-285E",
        "meta_epoch": "2025-12-27T12:06:25.095168",
        "meta_mean_motion": 14.02265731,
        "meta_eccentricity": 0.0006013,
        "meta_inclination": 50.0072,
        "meta_ra_of_asc_node": 57.0984,
        "meta_arg_of_pericenter": 344.0294,
        "meta_mean_anomaly": 16.042,
        "meta_ephemeris_type": 0,
        "meta_classification_type": "U",
        "meta_norad_cat_id": 66919,
        "meta_element_set_no": 999,
        "meta_rev_at_epoch": 298,
        "meta_bstar": 0.00032095,
        "meta_mean_motion_dot": 3.44e-06,
        "meta_mean_motion_ddot": 0,
        "tle_line1": "1 66919U 25285E   25361.50445712  .00000344  00000+0  32095-3 0  9990",
        "tle_line2": "2 66919  50.0072  57.0984 0006013 344.0294  16.0420 14.02265731  2989"
      },
      "geometry": {
        "type": "Point",
        "coordinates": [
          82.38838608714332,
          27.73367720487085
        ]
      }
    }
  ]
}